[{"OBJECT_NAME":"STARLINK-30814","OBJECT_ID":"2023-166R","EPOCH":"2025-08-27T04:26:06.974016","MEAN_MOTION":15.30193672,"ECCENTRICITY":0.00012537,"INCLINATION":53.1621,"RA_OF_ASC_NODE":42.7947,"ARG_OF_PERICENTER":94.348,"MEAN_ANOMALY":265.7664,"EPHEMERIS_TYPE":0,"CLASSIFICATION_TYPE":"U","NORAD_CAT_ID":58165,"ELEMENT_SET_NO":999,"REV_AT_EPOCH":10340,"BSTAR":2.4907564e-5,"MEAN_MOTION_DOT":3.78e-6,"MEAN_MOTION_DDOT":0},{"OBJECT_NAME":"STARLINK-30789","OBJECT_ID":"2023-166S","EPOCH":"2025-08-26T18:05:44.236608","MEAN_MOTION":15.30195987,"ECCENTRICITY":0.00010194,"INCLINATION":53.16,"RA_OF_ASC_NODE":45.08,"ARG_OF_PERICENTER":82.2857,"MEAN_ANOMALY":277.826,"EPHEMERIS_TYPE":0,"CLASSIFICATION_TYPE":"U","NORAD_CAT_ID":58166,"ELEMENT_SET_NO":999,"REV_AT_EPOCH":10333,"BSTAR":4.2706249e-5,"MEAN_MOTION_DOT":9.06e-6,"MEAN_MOTION_DDOT":0},{"OBJECT_NAME":"STARLINK-30811","OBJECT_ID":"2023-166T","EPOCH":"2025-08-27T04:35:14.049312","MEAN_MOTION":15.3019437,"ECCENTRICITY":0.00012774,"INCLINATION":53.1616,"RA_OF_ASC_NODE":42.831,"ARG_OF_PERICENTER":93.7609,"MEAN_ANOMALY":266.3538,"EPHEMERIS_TYPE":0,"CLASSIFICATION_TYPE":"U","NORAD_CAT_ID":58167,"ELEMENT_SET_NO":999,"REV_AT_EPOCH":10325,"BSTAR":3.6172835e-5,"MEAN_MOTION_DOT":7.12e-6,"MEAN_MOTION_DDOT":0},{"OBJECT_NAME":"STARLINK-30812","OBJECT_ID":"2023-166U","EPOCH":"2025-08-27T04:30:40.028256","MEAN_MOTION":15.30204537,"ECCENTRICITY":7.247e-5,"INCLINATION":53.1612,"RA_OF_ASC_NODE":42.8144,"ARG_OF_PERICENTER":71.8811,"MEAN_ANOMALY":288.2269,"EPHEMERIS_TYPE":0,"CLASSIFICATION_TYPE":"U","NORAD_CAT_ID":58168,"ELEMENT_SET_NO":999,"REV_AT_EPOCH":10325,"BSTAR":8.4095561e-5,"MEAN_MOTION_DOT":2.133e-5,"MEAN_MOTION_DDOT":0},{"OBJECT_NAME":"STARLINK-30771","OBJECT_ID":"2023-166V","EPOCH":"2025-08-26T17:52:03.106560","MEAN_MOTION":15.3020792,"ECCENTRICITY":0.00011302,"INCLINATION":53.1615,"RA_OF_ASC_NODE":45.0183,"ARG_OF_PERICENTER":88.5383,"MEAN_ANOMALY":271.5747,"EPHEMERIS_TYPE":0,"CLASSIFICATION_TYPE":"U","NORAD_CAT_ID":58169,"ELEMENT_SET_NO":999,"REV_AT_EPOCH":10333,"BSTAR":-2.4746558e-5,"MEAN_MOTION_DOT":-1.092e-5,"MEAN_MOTION_DDOT":0},{"OBJECT_NAME":"STARLINK-30764","OBJECT_ID":"2023-166W","EPOCH":"2025-08-26T20:55:35.989248","MEAN_MOTION":15.30200862,"ECCENTRICITY":0.00011076,"INCLINATION":53.1608,"RA_OF_ASC_NODE":44.3924,"ARG_OF_PERICENTER":75.0561,"MEAN_ANOMALY":285.0563,"EPHEMERIS_TYPE":0,"CLASSIFICATION_TYPE":"U","NORAD_CAT_ID":58170,"ELEMENT_SET_NO":999,"REV_AT_EPOCH":10335,"BSTAR":3.0504465e-5,"MEAN_MOTION_DOT":5.44e-6,"MEAN_MOTION_DDOT":0},{"OBJECT_NAME":"STARLINK-30752","OBJECT_ID":"2023-166X","EPOCH":"2025-08-27T04:41:18.400704","MEAN_MOTION":15.30196138,"ECCENTRICITY":0.00010169,"INCLINATION":53.1609,"RA_OF_ASC_NODE":42.8483,"ARG_OF_PERICENTER":75.8775,"MEAN_ANOMALY":284.2338,"EPHEMERIS_TYPE":0,"CLASSIFICATION_TYPE":"U","NORAD_CAT_ID":58171,"ELEMENT_SET_NO":999,"REV_AT_EPOCH":10340,"BSTAR":5.7683108e-5,"MEAN_MOTION_DOT":1.35e-5,"MEAN_MOTION_DDOT":0},{"OBJECT_NAME":"STARLINK-30753","OBJECT_ID":"2023-167A","EPOCH":"2025-08-27T01:48:29.847744","MEAN_MOTION":15.02540323,"ECCENTRICITY":8.164e-5,"INCLINATION":43.0031,"RA_OF_ASC_NODE":123.1284,"ARG_OF_PERICENTER":266.1671,"MEAN_ANOMALY":93.9078,"EPHEMERIS_TYPE":0,"CLASSIFICATION_TYPE":"U","NORAD_CAT_ID":58175,"ELEMENT_SET_NO":999,"REV_AT_EPOCH":10168,"BSTAR":8.8586505e-5,"MEAN_MOTION_DOT":9.93e-6,"MEAN_MOTION_DDOT":0},{"OBJECT_NAME":"STARLINK-30824","OBJECT_ID":"2023-167B","EPOCH":"2025-08-27T01:46:54.252192","MEAN_MOTION":15.02559227,"ECCENTRICITY":0.00011243,"INCLINATION":43.003,"RA_OF_ASC_NODE":123.1181,"ARG_OF_PERICENTER":273.4848,"MEAN_ANOMALY":86.5865,"EPHEMERIS_TYPE":0,"CLASSIFICATION_TYPE":"U","NORAD_CAT_ID":58176,"ELEMENT_SET_NO":999,"REV_AT_EPOCH":10168,"BSTAR":0.0001558187,"MEAN_MOTION_DOT":1.903e-5,"MEAN_MOTION_DDOT":0},{"OBJECT_NAME":"STARLINK-30791","OBJECT_ID":"2023-167C","EPOCH":"2025-08-26T22:59:25.019808","MEAN_MOTION":15.02544577,"ECCENTRICITY":0.00010254,"INCLINATION":43.0035,"RA_OF_ASC_NODE":123.9533,"ARG_OF_PERICENTER":273.9167,"MEAN_ANOMALY":86.1558,"EPHEMERIS_TYPE":0,"CLASSIFICATION_TYPE":"U","NORAD_CAT_ID":58177,"ELEMENT_SET_NO":999,"REV_AT_EPOCH":10166,"BSTAR":-8.0478352e-5,"MEAN_MOTION_DOT":-1.291e-5,"MEAN_MOTION_DDOT":0},{"OBJECT_NAME":"STARLINK-30810","OBJECT_ID":"2023-167D","EPOCH":"2025-08-27T01:37:28.377120","MEAN_MOTION":15.02550498,"ECCENTRICITY":0.00013602,"INCLINATION":43.0041,"RA_OF_ASC_NODE":123.9161,"ARG_OF_PERICENTER":272.1056,"MEAN_ANOMALY":87.9631,"EPHEMERIS_TYPE":0,"CLASSIFICATION_TYPE":"U","NORAD_CAT_ID":58178,"ELEMENT_SET_NO":999,"REV_AT_EPOCH":10167,"BSTAR":-0.00032995781,"MEAN_MOTION_DOT":-4.66e-5,"MEAN_MOTION_DDOT":0},{"OBJECT_NAME":"STARLINK-30819","OBJECT_ID":"2023-167E","EPOCH":"2025-08-26T22:21:12.097728","MEAN_MOTION":15.02555988,"ECCENTRICITY":5.209e-5,"INCLINATION":43.0071,"RA_OF_ASC_NODE":124.6127,"ARG_OF_PERICENTER":279.5727,"MEAN_ANOMALY":80.5057,"EPHEMERIS_TYPE":0,"CLASSIFICATION_TYPE":"U","NORAD_CAT_ID":58179,"ELEMENT_SET_NO":999,"REV_AT_EPOCH":10165,"BSTAR":0.00014512508,"MEAN_MOTION_DOT":1.758e-5,"MEAN_MOTION_DDOT":0},{"OBJECT_NAME":"STARLINK-30806","OBJECT_ID":"2023-167F","EPOCH":"2025-08-27T02:31:38.931744","MEAN_MOTION":15.02535605,"ECCENTRICITY":0.00011795,"INCLINATION":43.0029,"RA_OF_ASC_NODE":123.3325,"ARG_OF_PERICENTER":264.4391,"MEAN_ANOMALY":95.6317,"EPHEMERIS_TYPE":0,"CLASSIFICATION_TYPE":"U","NORAD_CAT_ID":58180,"ELEMENT_SET_NO":999,"REV_AT_EPOCH":10168,"BSTAR":6.5543749e-5,"MEAN_MOTION_DOT":6.82e-6,"MEAN_MOTION_DDOT":0},{"OBJECT_NAME":"STARLINK-30821","OBJECT_ID":"2023-167G","EPOCH":"2025-08-27T00:30:20.860128","MEAN_MOTION":15.02538768,"ECCENTRICITY":9.633e-5,"INCLINATION":43.0029,"RA_OF_ASC_NODE":123.5609,"ARG_OF_PERICENTER":266.5552,"MEAN_ANOMALY":93.5181,"EPHEMERIS_TYPE":0,"CLASSIFICATION_TYPE":"U","NORAD_CAT_ID":58181,"ELEMENT_SET_NO":999,"REV_AT_EPOCH":10167,"BSTAR":2.849419e-5,"MEAN_MOTION_DOT":1.81e-6,"MEAN_MOTION_DDOT":0},{"OBJECT_NAME":"STARLINK-30778","OBJECT_ID":"2023-167H","EPOCH":"2025-08-27T00:25:33.187872","MEAN_MOTION":15.02539674,"ECCENTRICITY":8.175e-5,"INCLINATION":43.0028,"RA_OF_ASC_NODE":123.5392,"ARG_OF_PERICENTER":265.3529,"MEAN_ANOMALY":94.722,"EPHEMERIS_TYPE":0,"CLASSIFICATION_TYPE":"U","NORAD_CAT_ID":58182,"ELEMENT_SET_NO":999,"REV_AT_EPOCH":10167,"BSTAR":1.5026769e-5,"MEAN_MOTION_DOT":0,"MEAN_MOTION_DDOT":0},{"OBJECT_NAME":"STARLINK-30809","OBJECT_ID":"2023-167J","EPOCH":"2025-08-27T01:23:05.742240","MEAN_MOTION":15.0253472,"ECCENTRICITY":0.00011374,"INCLINATION":43.0034,"RA_OF_ASC_NODE":123.8406,"ARG_OF_PERICENTER":265.4537,"MEAN_ANOMALY":94.6176,"EPHEMERIS_TYPE":0,"CLASSIFICATION_TYPE":"U","NORAD_CAT_ID":58183,"ELEMENT_SET_NO":999,"REV_AT_EPOCH":10167,"BSTAR":8.1396823e-5,"MEAN_MOTION_DOT":8.96e-6,"MEAN_MOTION_DDOT":0},{"OBJECT_NAME":"STARLINK-30801","OBJECT_ID":"2023-167K","EPOCH":"2025-08-27T01:18:17.998272","MEAN_MOTION":15.02534355,"ECCENTRICITY":0.00010591,"INCLINATION":43.0037,"RA_OF_ASC_NODE":123.8144,"ARG_OF_PERICENTER":253.2661,"MEAN_ANOMALY":106.8066,"EPHEMERIS_TYPE":0,"CLASSIFICATION_TYPE":"U","NORAD_CAT_ID":58184,"ELEMENT_SET_NO":999,"REV_AT_EPOCH":10167,"BSTAR":4.3466321e-5,"MEAN_MOTION_DOT":3.84e-6,"MEAN_MOTION_DDOT":0},{"OBJECT_NAME":"STARLINK-30793","OBJECT_ID":"2023-167L","EPOCH":"2025-08-26T22:45:01.996128","MEAN_MOTION":15.02546183,"ECCENTRICITY":9.359e-5,"INCLINATION":43.0065,"RA_OF_ASC_NODE":123.8739,"ARG_OF_PERICENTER":232.9816,"MEAN_ANOMALY":127.0941,"EPHEMERIS_TYPE":0,"CLASSIFICATION_TYPE":"U","NORAD_CAT_ID":58185,"ELEMENT_SET_NO":999,"REV_AT_EPOCH":10166,"BSTAR":5.9727613e-5,"MEAN_MOTION_DOT":6.04e-6,"MEAN_MOTION_DDOT":0},{"OBJECT_NAME":"STARLINK-30755","OBJECT_ID":"2023-167M","EPOCH":"2025-08-27T02:41:14.245152","MEAN_MOTION":15.02529375,"ECCENTRICITY":0.0001337,"INCLINATION":43.0035,"RA_OF_ASC_NODE":123.3867,"ARG_OF_PERICENTER":262.0805,"MEAN_ANOMALY":97.9885,"EPHEMERIS_TYPE":0,"CLASSIFICATION_TYPE":"U","NORAD_CAT_ID":58186,"ELEMENT_SET_NO":999,"REV_AT_EPOCH":10168,"BSTAR":-0.00016213771,"MEAN_MOTION_DOT":-2.393e-5,"MEAN_MOTION_DDOT":0},{"OBJECT_NAME":"STARLINK-30760","OBJECT_ID":"2023-167N","EPOCH":"2025-08-27T01:51:41.395680","MEAN_MOTION":15.02538564,"ECCENTRICITY":0.00011142,"INCLINATION":43.0033,"RA_OF_ASC_NODE":123.1257,"ARG_OF_PERICENTER":271.3291,"MEAN_ANOMALY":88.7424,"EPHEMERIS_TYPE":0,"CLASSIFICATION_TYPE":"U","NORAD_CAT_ID":58187,"ELEMENT_SET_NO":999,"REV_AT_EPOCH":10168,"BSTAR":4.1709659e-5,"MEAN_MOTION_DOT":3.6e-6,"MEAN_MOTION_DDOT":0},{"OBJECT_NAME":"STARLINK-30826","OBJECT_ID":"2023-167P","EPOCH":"2025-08-27T01:03:54.360288","MEAN_MOTION":15.02545121,"ECCENTRICITY":0.00010674,"INCLINATION":43.0038,"RA_OF_ASC_NODE":123.7405,"ARG_OF_PERICENTER":269.1687,"MEAN_ANOMALY":90.9033,"EPHEMERIS_TYPE":0,"CLASSIFICATION_TYPE":"U","NORAD_CAT_ID":58188,"ELEMENT_SET_NO":999,"REV_AT_EPOCH":10167,"BSTAR":6.2673759e-5,"MEAN_MOTION_DOT":6.43e-6,"MEAN_MOTION_DDOT":0},{"OBJECT_NAME":"STARLINK-30796","OBJECT_ID":"2023-167Q","EPOCH":"2025-08-27T01:08:42.521568","MEAN_MOTION":15.0253409,"ECCENTRICITY":0.00010833,"INCLINATION":43.0035,"RA_OF_ASC_NODE":123.7631,"ARG_OF_PERICENTER":264.1667,"MEAN_ANOMALY":95.9052,"EPHEMERIS_TYPE":0,"CLASSIFICATION_TYPE":"U","NORAD_CAT_ID":58189,"ELEMENT_SET_NO":999,"REV_AT_EPOCH":10167,"BSTAR":3.9138342e-5,"MEAN_MOTION_DOT":3.25e-6,"MEAN_MOTION_DDOT":0},{"OBJECT_NAME":"STARLINK-30820","OBJECT_ID":"2023-167R","EPOCH":"2025-08-27T02:49:13.822176","MEAN_MOTION":15.02533784,"ECCENTRICITY":0.00010509,"INCLINATION":43.0028,"RA_OF_ASC_NODE":123.4262,"ARG_OF_PERICENTER":276.0113,"MEAN_ANOMALY":84.0609,"EPHEMERIS_TYPE":0,"CLASSIFICATION_TYPE":"U","NORAD_CAT_ID":58190,"ELEMENT_SET_NO":999,"REV_AT_EPOCH":10168,"BSTAR":6.5354644e-5,"MEAN_MOTION_DOT":6.79e-6,"MEAN_MOTION_DDOT":0}]
